ION SCV-008             
1 55051U 23001AU  26068.82429008  .00008336  00000+0  31423-3 0  9992
2 55051  97.5676 163.6060 0015192   8.5420 351.6074 15.27226640176169
YAOGAN-43 03C           
1 61619U 24190C   26068.54836044  .00000578  00000+0  25482-4 0  9999
2 61619  34.9956 104.7228 0006036 169.7730 190.3109 15.23076374 76625
